QIANFAN-49              
1 62250U 24232P   25316.77001328  .00000260  00000+0  38502-3 0  9991
2 62250  89.0045  44.2535 0012328 280.8969  79.0795 13.50974517 63798
QIANFAN-50              
1 62251U 24232Q   25316.79469861  .00000276  00000+0  40883-3 0  9996
2 62251  89.0051  44.2574 0013983 282.4381  77.5205 13.50975025 63821
QIANFAN-51              
1 62252U 24232R   25316.77823205  .00000109  00000+0  15115-3 0  9996
2 62252  89.0045  44.2549 0011475 286.7444  73.2447 13.50972326 63819
QIANFAN-52              
1 62253U 24232S   25316.80705632  .00000264  00000+0  39129-3 0  9997
2 62253  89.0041  44.1267 0013489 277.8286  82.1334 13.50973944 63905
QIANFAN-53              
1 62254U 24232T   25316.78651106  .00000253  00000+0  37396-3 0  9993
2 62254  89.0048  44.2310 0012370 279.0159  80.9592 13.50985074 63868
QIANFAN-54              
1 62255U 24232U   25316.82763810  .00000266  00000+0  39291-3 0  9995
2 62255  89.0040  43.9080 0001190  24.6635 335.4573 13.50974024 95373
QIANFAN-55              
1 62785U 25016A   25316.63175340  .00000240  00000+0  35207-3 0  9993
2 62785  88.9752 106.3171 0018819  77.6407 282.6849 13.50976342 43125
QIANFAN-56              
1 62786U 25016B   25316.79617751  .00000160  00000+0  22849-3 0  9997
2 62786  88.9727 106.1441 0017538  79.3698 280.9427 13.50979685 43197
